OBJECT_NAME,OBJECT_ID,EPOCH,MEAN_MOTION,ECCENTRICITY,INCLINATION,RA_OF_ASC_NODE,ARG_OF_PERICENTER,MEAN_ANOMALY,EPHEMERIS_TYPE,CLASSIFICATION_TYPE,NORAD_CAT_ID,ELEMENT_SET_NO,REV_AT_EPOCH,BSTAR,MEAN_MOTION_DOT,MEAN_MOTION_DDOT
STARLINK-37491,2026-111U,2026-06-09T11:48:39.856608,15.78110684,.00011239,53.1589,190.1970,109.1806,250.9337,0,U,69166,999,304,.11763288E-2,.209173E-2,0
STARLINK-37474,2026-111V,2026-06-09T11:44:59.102016,15.78113581,.00007717,53.1589,190.1801,84.5330,275.5779,0,U,69167,999,304,.11432277E-2,.203151E-2,0
STARLINK-37469,2026-111W,2026-06-09T14:00:04.000032,15.58746073,.00010393,53.1596,189.9247,40.0335,28.6366,0,U,69168,999,432,-.36359201E-1,-.2484048E-1,0
STARLINK-37515,2026-111X,2026-06-09T13:13:49.175040,15.78125850,.00015342,53.1591,189.8524,131.5713,228.5441,0,U,69169,999,305,.99983787E-3,.177139E-2,0
STARLINK-37437,2026-111Y,2026-06-09T14:00:04.000032,15.78042676,.00009776,53.1593,189.6435,80.2178,126.7558,0,U,69170,999,432,-.80299139E-4,-.14578E-3,0
STARLINK-37392,2026-111Z,2026-06-09T14:00:04.000032,15.78032812,.00012719,53.1588,189.6136,66.1354,155.1624,0,U,69171,999,432,.11498602E-3,.19322E-3,0
STARLINK-37472,2026-111AA,2026-06-09T14:00:04.000032,15.78001856,.00011116,53.1593,189.5818,73.5463,162.9544,0,U,69172,999,432,.53242908E-3,.92561E-3,0
STARLINK-37461,2026-111AB,2026-06-09T14:00:04.000032,15.60570492,.00010979,53.1597,189.8579,41.3014,60.0372,0,U,69173,999,432,-.33673581E-1,-.2470435E-1,0
STARLINK-37333,2026-111AC,2026-06-09T11:40:18.089472,15.78112141,.00010966,53.1585,190.1577,69.6258,290.4881,0,U,69174,999,304,.11409543E-2,.202721E-2,0
STARLINK-37385,2026-111AD,2026-06-09T14:00:04.000032,15.62566216,.00013082,53.1594,189.8017,55.9091,72.8602,0,U,69175,999,432,-.3165527E-1,-.2505997E-1,0
STARLINK-37414,2026-111AE,2026-06-09T14:00:04.000032,15.78022837,.00010773,53.1587,189.6228,67.9755,148.6962,0,U,69176,999,432,.14885558E-3,.25216E-3,0
STRIX-7,2026-112A,2026-06-09T12:29:59.026848,15.01397951,.00239388,44.9067,232.7140,3.6638,356.4405,0,U,69177,999,272,.248317E-3,.3038E-4,0
SHENZHOU-23 (SZ-23),2026-113A,2026-06-09T11:45:26.751744,15.60486295,.00084439,41.4694,8.8345,15.7709,344.3391,0,U,69180,999,29188,.2641959E-3,.22144E-3,0
STARLINK-37380,2026-114A,2026-06-09T11:49:49.242720,15.78136218,.00010976,53.1588,240.9095,48.7694,311.3422,0,U,69182,999,355,.13699384E-2,.245028E-2,0
STARLINK-37089,2026-114B,2026-06-09T13:19:40.970784,15.78073817,.00010103,53.1584,240.5868,90.3855,269.7282,0,U,69183,999,356,.78298859E-3,.137606E-2,0
STARLINK-37428,2026-114C,2026-06-09T11:46:27.390720,15.78113801,.00008962,53.1588,240.8941,65.2913,294.8202,0,U,69184,999,355,.13133541E-2,.234348E-2,0
STARLINK-37237,2026-114D,2026-06-09T11:42:29.568672,15.78082047,.00008505,53.1590,240.8748,76.3002,283.8115,0,U,69185,999,355,.84363375E-3,.148562E-2,0
STARLINK-37365,2026-114E,2026-06-09T11:42:56.770848,15.78093674,.00009708,53.1589,240.8773,63.2403,296.8718,0,U,69186,999,355,.11577554E-2,.205617E-2,0
STARLINK-37209,2026-114F,2026-06-09T11:41:49.955136,15.78105690,.0000921,53.1590,240.8720,69.9092,290.2028,0,U,69187,999,355,.1218376E-2,.216822E-2,0
STARLINK-37359,2026-114G,2026-06-09T11:41:11.806944,15.78112550,.00007895,53.1590,240.8687,83.4620,276.6492,0,U,69188,999,355,.14034917E-2,.250958E-2,0
STARLINK-37440,2026-114H,2026-06-09T14:00:04.000032,15.80897262,.00008723,53.1597,239.9424,86.7052,317.5056,0,U,69189,999,359,-.93470845E-4,-.19126E-3,0
STARLINK-37282,2026-114J,2026-06-09T14:00:04.000032,15.78089597,.00008922,53.1601,240.3125,91.5302,133.4234,0,U,69190,999,359,-.31948041E-3,-.55861E-3,0
STARLINK-37422,2026-114K,2026-06-09T11:26:06.712512,15.80913130,.00008362,53.1591,240.7985,93.9331,266.1787,0,U,69191,999,355,.89694546E-3,.180408E-2,0
STARLINK-37424,2026-114L,2026-06-09T14:00:04.000032,15.78110939,.00010597,53.1596,240.3148,97.2665,127.0607,0,U,69192,999,359,-.49054744E-3,-.85208E-3,0
STARLINK-36666,2026-114M,2026-06-09T11:26:25.916640,15.80899268,.00010526,53.1591,240.8004,56.0099,304.1024,0,U,69193,999,355,.72389519E-3,.144768E-2,0
STARLINK-37355,2026-114N,2026-06-09T11:25:21.176256,15.80902945,.00012687,53.1591,240.7957,46.5657,313.5471,0,U,69194,999,355,.86004875E-3,.172721E-2,0
STARLINK-37166,2026-114P,2026-06-09T11:23:11.508864,15.80856098,.00010068,53.1591,240.7850,49.7656,310.3455,0,U,69195,999,355,.77257057E-3,.154416E-2,0
STARLINK-36933,2026-114Q,2026-06-09T11:24:16.238880,15.80899441,.00010318,53.1591,240.7903,70.0532,290.0602,0,U,69196,999,355,.70594567E-3,.141102E-2,0
STARLINK-37419,2026-114R,2026-06-09T11:22:06.594816,15.80901156,.0001031,53.1592,240.7803,86.2143,273.8997,0,U,69197,999,355,.67916687E-3,.135647E-2,0
