STARLINK-37491          
1 69166U 26111U   26160.49212797  .00209173  00000+0  11763-2 0  9996
2 69166  53.1589 190.1970 0001123 109.1806 250.9337 15.78110684  3047
STARLINK-37474          
1 69167U 26111V   26160.48957294  .00203151  00000+0  11432-2 0  9997
2 69167  53.1589 190.1801 0000771  84.5330 275.5779 15.78113581  3049
STARLINK-37469          
1 69168U 26111W   26160.58337963 -.02484048  00000+0 -36359-1 0  9998
2 69168  53.1596 189.9247 0001039  40.0335  28.6366 15.58746073  4325
STARLINK-37515          
1 69169U 26111X   26160.55126360  .00177139  00000+0  99984-3 0  9994
2 69169  53.1591 189.8524 0001534 131.5713 228.5441 15.78125850  3054
STARLINK-37437          
1 69170U 26111Y   26160.58337963 -.00014578  00000+0 -80299-4 0  9991
2 69170  53.1593 189.6435 0000977  80.2178 126.7558 15.78042676  4325
STARLINK-37392          
1 69171U 26111Z   26160.58337963  .00019322  00000+0  11499-3 0  9997
2 69171  53.1588 189.6136 0001271  66.1354 155.1624 15.78032812  4326
STARLINK-37472          
1 69172U 26111AA  26160.58337963  .00092561  00000+0  53243-3 0  9997
2 69172  53.1593 189.5818 0001111  73.5463 162.9544 15.78001856  4326
STARLINK-37461          
1 69173U 26111AB  26160.58337963 -.02470435  00000+0 -33674-1 0  9996
2 69173  53.1597 189.8579 0001097  41.3014  60.0372 15.60570492  4321
STARLINK-37333          
1 69174U 26111AC  26160.48632048  .00202721  00000+0  11410-2 0  9990
2 69174  53.1585 190.1577 0001096  69.6258 290.4881 15.78112141  3048
STARLINK-37385          
1 69175U 26111AD  26160.58337963 -.02505997  00000+0 -31655-1 0  9997
2 69175  53.1594 189.8017 0001308  55.9091  72.8602 15.62566216  4326
STARLINK-37414          
1 69176U 26111AE  26160.58337963  .00025216  00000+0  14886-3 0  9994
2 69176  53.1587 189.6228 0001077  67.9755 148.6962 15.78022837  4328
STRIX-7                 
1 69177U 26112A   26160.52082207  .00003038  00000+0  24832-3 0  9998
2 69177  44.9067 232.7140 0023938   3.6638 356.4405 15.01397951  2721
SHENZHOU-23 (SZ-23)     
1 69180U 26113A   26160.48989296  .00022144  00000+0  26420-3 0  9996
2 69180  41.4694   8.8345 0008443  15.7709 344.3391 15.60486295291881
STARLINK-37380          
1 69182U 26114A   26160.49293105  .00245028  00000+0  13699-2 0  9998
2 69182  53.1588 240.9095 0001097  48.7694 311.3422 15.78136218  3553
STARLINK-37089          
1 69183U 26114B   26160.55533531  .00137606  00000+0  78299-3 0  9996
2 69183  53.1584 240.5868 0001010  90.3855 269.7282 15.78073817  3567
STARLINK-37428          
1 69184U 26114C   26160.49059480  .00234348  00000+0  13134-2 0  9993
2 69184  53.1588 240.8941 0000896  65.2913 294.8202 15.78113801  3552
STARLINK-37237          
1 69185U 26114D   26160.48784223  .00148562  00000+0  84363-3 0  9998
2 69185  53.1590 240.8748 0000850  76.3002 283.8115 15.78082047  3551
STARLINK-37365          
1 69186U 26114E   26160.48815707  .00205617  00000+0  11578-2 0  9993
2 69186  53.1589 240.8773 0000970  63.2403 296.8718 15.78093674  3552
STARLINK-37209          
1 69187U 26114F   26160.48738374  .00216822  00000+0  12184-2 0  9992
2 69187  53.1590 240.8720 0000921  69.9092 290.2028 15.78105690  3554
STARLINK-37359          
1 69188U 26114G   26160.48694221  .00250958  00000+0  14035-2 0  9990
2 69188  53.1590 240.8687 0000789  83.4620 276.6492 15.78112550  3553
STARLINK-37440          
1 69189U 26114H   26160.58337963 -.00019126  00000+0 -93471-4 0  9994
2 69189  53.1597 239.9424 0000872  86.7052 317.5056 15.80897262  3595
STARLINK-37282          
1 69190U 26114J   26160.58337963 -.00055861  00000+0 -31948-3 0  9992
2 69190  53.1601 240.3125 0000892  91.5302 133.4234 15.78089597  3595
STARLINK-37422          
1 69191U 26114K   26160.47646658  .00180408  00000+0  89695-3 0  9991
2 69191  53.1591 240.7985 0000836  93.9331 266.1787 15.80913130  3553
STARLINK-37424          
1 69192U 26114L   26160.58337963 -.00085208  00000+0 -49055-3 0  9990
2 69192  53.1596 240.3148 0001059  97.2665 127.0607 15.78110939  3594
STARLINK-36666          
1 69193U 26114M   26160.47668885  .00144768  00000+0  72390-3 0  9992
2 69193  53.1591 240.8004 0001052  56.0099 304.1024 15.80899268  3552
STARLINK-37355          
1 69194U 26114N   26160.47593954  .00172721  00000+0  86005-3 0  9995
2 69194  53.1591 240.7957 0001268  46.5657 313.5471 15.80902945  3559
STARLINK-37166          
1 69195U 26114P   26160.47443876  .00154416  00000+0  77257-3 0  9993
2 69195  53.1591 240.7850 0001006  49.7656 310.3455 15.80856098  3550
STARLINK-36933          
1 69196U 26114Q   26160.47518795  .00141102  00000+0  70595-3 0  9993
2 69196  53.1591 240.7903 0001031  70.0532 290.0602 15.80899441  3555
STARLINK-37419          
1 69197U 26114R   26160.47368744  .00135647  00000+0  67917-3 0  9992
2 69197  53.1592 240.7803 0001031  86.2143 273.8997 15.80901156  3556
